NORAD_CAT_ID,OBJECT_NAME,OBJECT_TYPE,EPOCH,MEAN_MOTION,ECCENTRICITY,INCLINATION,RA_OF_ASC_NODE,ARG_OF_PERICENTER,MEAN_ANOMALY,BSTAR,MEAN_MOTION_DOT,MEAN_MOTION_DDOT,TLE_LINE0,TLE_LINE1,TLE_LINE2,SEMIMAJOR_AXIS,PERIOD,APOGEE,PERIGEE,DECAYED
53561.0,STARLINK-4563,PAYLOAD,2023-08-01 16:57:19,15.08838488,9.43e-05,53.218,13.258,89.562,270.548,5.7896e-05,6.34e-06,0.0,0 STARLINK-4563,1 53561U 22101AL  23213.70647782  .00000634  00000-0  57896-4 0  9990,2 53561  53.2180  13.2580 0000943  89.5620 270.5480 15.08838488 52743,6917.885,95.438,540.402,539.098,0.0
53561.0,STARLINK-4563,PAYLOAD,2023-08-01 20:08:05,15.08846659,9.75e-05,53.218,12.663,92.544,267.5664,8.3969e-05,1.049e-05,0.0,0 STARLINK-4563,1 53561U 22101AL  23213.83895171  .00001049  00000-0  83969-4 0  9992,2 53561  53.2180  12.6630 0000975  92.5440 267.5664 15.08846659 52762,6917.86,95.437,540.4,539.051,0.0
53561.0,STARLINK-4563,PAYLOAD,2023-08-02 10:26:34,15.08840375,0.0001048,53.218,9.9867,95.1812,264.93,-1.6244e-05,-5.46e-06,0.0,0 STARLINK-4563,1 53561U 22101AL  23214.43511893 -.00000546  00000-0 -16244-4 0  9990,2 53561  53.2180   9.9867 0001048  95.1812 264.9300 15.08840375 52854,6917.879,95.438,540.469,539.019,0.0
53561.0,STARLINK-4563,PAYLOAD,2023-08-02 16:48:06,15.08848614,0.0001133,53.2175,8.7965,104.4478,255.664,4.9923e-05,5.07e-06,0.0,0 STARLINK-4563,1 53561U 22101AL  23214.70007058  .00000507  00000-0  49923-4 0  9998,2 53561  53.2175   8.7965 0001133 104.4478 255.6640 15.08848614 52893,6917.854,95.437,540.503,538.935,0.0
53561.0,STARLINK-4563,PAYLOAD,2023-08-03 10:17:21,15.08838649,9.83e-05,53.2175,5.5287,82.5648,277.5456,5.4586e-05,5.81e-06,0.0,0 STARLINK-4563,1 53561U 22101AL  23215.42871674  .00000581  00000-0  54586-4 0  9994,2 53561  53.2175   5.5287 0000983  82.5648 277.5456 15.08838649 53001,6917.885,95.438,540.43,539.069,0.0
53561.0,STARLINK-4563,PAYLOAD,2023-08-04 10:08:08,15.08833698,9.67e-05,53.2177,1.0672,99.8797,260.2304,2.0176e-06,-2.56e-06,0.0,0 STARLINK-4563,1 53561U 22101AL  23216.42232169 -.00000256  00000-0  20176-5 0  9994,2 53561  53.2177   1.0672 0000967  99.8797 260.2304 15.08833698 53156,6917.9,95.438,540.434,539.096,0.0
53561.0,STARLINK-4563,PAYLOAD,2023-08-05 09:58:55,15.08839555,9.77e-05,53.218,356.6071,92.2329,267.8775,7.0461e-05,8.34e-06,0.0,0 STARLINK-4563,1 53561U 22101AL  23217.41591714  .00000834  00000-0  70461-4 0  9990,2 53561  53.2180 356.6071 0000977  92.2329 267.8775 15.08839555 53301,6917.882,95.438,540.423,539.071,0.0
53561.0,STARLINK-4563,PAYLOAD,2023-08-05 14:45:03,15.08850558,0.0001018,53.2186,355.7138,87.7344,272.3765,0.00014254,1.982e-05,0.0,0 STARLINK-4563,1 53561U 22101AL  23217.61462889  .00001982  00000-0  14254-3 0  9994,2 53561  53.2186 355.7138 0001018  87.7344 272.3765 15.08850558 53333,6917.848,95.437,540.417,539.009,0.0
53561.0,STARLINK-4563,PAYLOAD,2023-08-06 01:52:46,15.0884565,0.0001085,53.218,353.6326,66.4708,293.6398,0.00012933,1.771e-05,0.0,0 STARLINK-4563,1 53561U 22101AL  23218.07831144  .00001771  00000-0  12933-3 0  9997,2 53561  53.2180 353.6326 0001085  66.4708 293.6398 15.08845650 53408,6917.863,95.437,540.479,538.978,0.0
53561.0,STARLINK-4563,PAYLOAD,2023-08-06 09:49:44,15.08809933,0.0001034,53.2185,352.1457,71.779,288.3315,-0.0001692,-2.977e-05,0.0,0 STARLINK-4563,1 53561U 22101AL  23218.40954500 -.00002977  00000-0 -16920-3 0  9997,2 53561  53.2185 352.1457 0001034  71.7790 288.3315 15.08809933 53455,6917.972,95.439,540.553,539.122,0.0
53561.0,STARLINK-4563,PAYLOAD,2023-08-06 16:11:16,15.08816707,9.72e-05,53.2179,350.9583,85.3104,274.7999,-9.159e-05,-1.744e-05,0.0,0 STARLINK-4563,1 53561U 22101AL  23218.67450215 -.00001744  00000-0 -91590-4 0  9998,2 53561  53.2179 350.9583 0000972  85.3104 274.7999 15.08816707 53492,6917.952,95.439,540.489,539.144,0.0
53561.0,STARLINK-4563,PAYLOAD,2023-08-07 01:43:35,15.08826253,0.0001065,53.2187,349.1733,76.0754,284.0357,-8.4598e-06,-4.22e-06,0.0,0 STARLINK-4563,1 53561U 22101AL  23219.07193883 -.00000422  00000-0 -84598-5 0  9991,2 53561  53.2187 349.1733 0001065  76.0754 284.0357 15.08826253 53556,6917.922,95.438,540.524,539.051,0.0
53561.0,STARLINK-4563,PAYLOAD,2023-08-07 14:26:39,15.08840582,0.0001041,53.2179,346.7946,81.5423,278.5687,5.5509e-05,5.96e-06,0.0,0 STARLINK-4563,1 53561U 22101AL  23219.60184940  .00000596  00000-0  55509-4 0  9993,2 53561  53.2179 346.7946 0001041  81.5423 278.5687 15.08840582 53638,6917.879,95.438,540.464,539.023,0.0
53561.0,STARLINK-4563,PAYLOAD,2023-08-08 01:34:20,15.08856778,8.61e-05,53.218,344.713,105.4508,254.658,-6.257e-05,-1.284e-05,0.0,0 STARLINK-4563,1 53561U 22101AL  23220.06552028 -.00001284  00000-0 -62570-4 0  9994,2 53561  53.2180 344.7130 0000861 105.4508 254.6580 15.08856778 53701,6917.829,95.436,540.29,539.098,0.0
53561.0,STARLINK-4563,PAYLOAD,2023-08-08 09:31:17,15.0885242,0.0001105,53.2175,343.2263,63.1929,296.9176,0.00073932,0.00011502,0.0,0 STARLINK-4563,1 53561U 22101AL  23220.39673247  .00011502  00000-0  73932-3 0  9992,2 53561  53.2175 343.2263 0001105  63.1929 296.9176 15.08852420 53750,6917.842,95.437,540.472,538.943,0.0
53561.0,STARLINK-4563,PAYLOAD,2023-08-08 14:17:26,15.08871125,0.0001074,53.2169,342.3342,62.3141,297.796,0.0010132,0.00015888,0.0,0 STARLINK-4563,1 53561U 22101AL  23220.59544637  .00015888  00000-0  10132-2 0  9997,2 53561  53.2169 342.3342 0001074  62.3141 297.7960 15.08871125 53789,6917.785,95.436,540.393,538.907,0.0
53561.0,STARLINK-4563,PAYLOAD,2023-08-09 09:22:04,15.08841709,7.62e-05,53.2173,338.7658,84.8224,275.2855,-0.00022057,-3.796e-05,0.0,0 STARLINK-4563,1 53561U 22101AL  23221.39032455 -.00003796  00000-0 -22057-3 0  9993,2 53561  53.2173 338.7658 0000762  84.8224 275.2855 15.08841709 53900,6917.875,95.437,540.267,539.213,0.0
53561.0,STARLINK-4563,PAYLOAD,2023-08-10 13:59:00,15.08845853,0.0001025,53.2171,333.413,75.4517,284.6589,0.00026772,3.976e-05,0.0,0 STARLINK-4563,1 53561U 22101AL  23222.58264816  .00003976  00000-0  26772-3 0  9999,2 53561  53.2171 333.4130 0001025  75.4517 284.6589 15.08845853 54081,6917.862,95.437,540.437,539.018,0.0
53561.0,STARLINK-4563,PAYLOAD,2023-08-11 17:00:33,15.08856996,0.000108,53.2171,328.3577,74.9073,285.2038,0.00045447,6.956e-05,0.0,0 STARLINK-4563,1 53561U 22101AL  23223.70872333  .00006956  00000-0  45447-3 0  9994,2 53561  53.2171 328.3577 0001080  74.9073 285.2038 15.08856996 54256,6917.828,95.436,540.441,538.946,0.0
53561.0,STARLINK-4563,PAYLOAD,2023-08-12 10:29:48,15.0885288,0.0001467,53.2174,325.0819,121.4432,238.6704,0.00017386,2.481e-05,0.0,0 STARLINK-4563,1 53561U 22101AL  23224.43736668  .00002481  00000-0  17386-3 0  9995,2 53561  53.2174 325.0819 0001467 121.4432 238.6704 15.08852880 54360,6917.841,95.437,540.721,538.691,0.0
53561.0,STARLINK-4563,PAYLOAD,2023-08-13 08:45:12,15.08826933,0.0001392,53.2163,320.9245,94.771,265.3441,-0.000257,-4.374e-05,0.0,0 STARLINK-4563,1 53561U 22101AL  23225.36473080 -.00004374  00000-0 -25700-3 0  9998,2 53561  53.2163 320.9245 0001392  94.7710 265.3441 15.08826933 54504,6917.92,95.438,540.748,538.822,0.0
53561.0,STARLINK-4563,PAYLOAD,2023-08-13 23:03:40,15.08839651,0.0001231,53.2177,318.2479,86.3011,273.8122,1.3862e-05,-6.7e-07,0.0,0 STARLINK-4563,1 53561U 22101AL  23225.96088988 -.00000067  00000-0  13862-4 0  9994,2 53561  53.2177 318.2479 0001231  86.3011 273.8122 15.08839651 54591,6917.881,95.438,540.598,538.895,0.0
53561.0,STARLINK-4563,PAYLOAD,2023-08-15 10:02:09,15.08849056,0.0001123,53.217,311.7071,93.4035,266.7085,0.0003201,4.811e-05,0.0,0 STARLINK-4563,1 53561U 22101AL  23227.41816930  .00004811  00000-0  32010-3 0  9997,2 53561  53.2170 311.7071 0001123  93.4035 266.7085 15.08849056 54819,6917.853,95.437,540.495,538.941,0.0
53561.0,STARLINK-4563,PAYLOAD,2023-08-15 22:45:14,15.08843617,0.0001281,53.2174,309.3248,89.0873,271.0266,6.5419e-05,7.54e-06,0.0,0 STARLINK-4563,1 53561U 22101AL  23227.94808847  .00000754  00000-0  65419-4 0  9995,2 53561  53.2174 309.3248 0001281  89.0873 271.0266 15.08843617 54893,6917.869,95.437,540.621,538.848,0.0
53561.0,STARLINK-4563,PAYLOAD,2023-08-16 22:36:02,15.0883988,0.000135,53.2163,304.869,75.1368,284.9773,0.00026845,3.987e-05,0.0,0 STARLINK-4563,1 53561U 22101AL  23228.94169299  .00003987  00000-0  26845-3 0  9997,2 53561  53.2163 304.8690 0001350  75.1368 284.9773 15.08839880 55045,6917.881,95.438,540.68,538.812,0.0
53561.0,STARLINK-4563,PAYLOAD,2023-08-18 09:34:31,15.08833367,0.0001239,53.2168,298.3251,91.7276,268.3858,5.1393e-05,5.3e-06,0.0,0 STARLINK-4563,1 53561U 22101AL  23230.39897744  .00000530  00000-0  51393-4 0  9990,2 53561  53.2168 298.3251 0001239  91.7276 268.3858 15.08833367 55266,6917.901,95.438,540.623,538.909,0.0
53561.0,STARLINK-4563,PAYLOAD,2023-08-18 14:20:40,15.08841468,0.0001256,53.217,297.4324,103.2176,256.8956,2.0041e-05,3.1e-07,0.0,0 STARLINK-4563,1 53561U 22101AL  23230.59769260  .00000031  00000-0  20041-4 0  9995,2 53561  53.2170 297.4324 0001256 103.2176 256.8956 15.08841468 55292,6917.876,95.437,540.61,538.872,0.0
53561.0,STARLINK-4563,PAYLOAD,2023-08-19 09:25:16,15.08896211,0.0001531,53.217,293.864,78.2076,281.9088,-0.00068693,-0.00011221,0.0,0 STARLINK-4563,1 53561U 22101AL  23231.39254900 -.00011221  00000-0 -68693-3 0  9993,2 53561  53.2170 293.8640 0001531  78.2076 281.9088 15.08896211 55414,6917.709,95.434,540.633,538.514,0.0
53561.0,STARLINK-4563,PAYLOAD,2023-08-19 14:11:27,15.08848385,0.0001284,53.2172,292.9718,86.7438,273.3701,0.00011736,1.581e-05,0.0,0 STARLINK-4563,1 53561U 22101AL  23231.59128627  .00001581  00000-0  11736-3 0  9993,2 53561  53.2172 292.9718 0001284  86.7438 273.3701 15.08848385 55442,6917.855,95.437,540.608,538.832,0.0
53561.0,STARLINK-4563,PAYLOAD,2023-08-19 23:43:47,15.08830665,0.0001003,53.2175,291.187,63.6864,296.4231,2.966e-05,1.84e-06,0.0,0 STARLINK-4563,1 53561U 22101AL  23231.98874131  .00000184  00000-0  29660-4 0  9998,2 53561  53.2175 291.1870 0001003  63.6864 296.4231 15.08830665 55504,6917.909,95.438,540.468,539.08,0.0
